[
  {
    "name": "STARLINK-5071",
    "tle1": "1 55402U 23014M   24263.47227029  .00000814  00000+0  76025-4 0  9992",
    "tle2": "2 55402  70.0014 336.5167 0002917 267.0220  93.0606 14.98329369 91737"
  },
  {
    "name": "STARLINK-5597",
    "tle1": "1 55403U 23014N   24263.66002538  .00001942  00000+0  17047-3 0  9991",
    "tle2": "2 55403  70.0013 335.9681 0002917 271.3220  88.7605 14.98335399 91762"
  },
  {
    "name": "STARLINK-5607",
    "tle1": "1 55404U 23014P   24264.21497509  .00001776  00000+0  15659-3 0  9992",
    "tle2": "2 55404  69.9997 334.6954 0003139 269.4788  90.6011 14.98333010 90900"
  },
  {
    "name": "STARLINK-5623",
    "tle1": "1 55405U 23014Q   24263.60161573  .00000180  00000+0  22895-4 0  9993",
    "tle2": "2 55405  69.9998 336.1669 0003206 269.7516  90.3276 14.98334340 91750"
  },
  {
    "name": "STARLINK-5630",
    "tle1": "1 55406U 23014R   24263.61831277  .00001834  00000+0  16145-3 0  9997",
    "tle2": "2 55406  70.0015 336.2257 0003211 268.5277  91.5514 14.98335039 91759"
  },
  {
    "name": "STARLINK-5019",
    "tle1": "1 55407U 23014S   24263.60996719 -.00000102  00000+0 -78810-6 0  9999",
    "tle2": "2 55407  70.0002 336.1958 0002922 268.5373  91.5451 14.98330992 91751"
  },
  {
    "name": "STARLINK-5092",
    "tle1": "1 55408U 23014T   24264.08979828  .00000001  00000+0  79062-5 0  9990",
    "tle2": "2 55408  70.0014 335.0614 0003576 284.1610  75.9151 14.98331438 90888"
  },
  {
    "name": "STARLINK-5047",
    "tle1": "1 55409U 23014U   24263.61847701  .00003068  00000+0  26472-3 0  9994",
    "tle2": "2 55409  70.0001 336.2248 0002997 266.6708  93.4109 14.98338793 91756"
  },
  {
    "name": "STARLINK-5633",
    "tle1": "1 55410U 23014V   24263.65607512  .00001061  00000+0  96646-4 0  9996",
    "tle2": "2 55410  70.0017 355.8231 0003057 265.1625  94.9185 14.98337852 91276"
  },
  {
    "name": "STARLINK-5605",
    "tle1": "1 55411U 23014W   24264.16073775  .00000484  00000+0  48386-4 0  9998",
    "tle2": "2 55411  69.9998 334.9078 0003120 270.3434  89.7367 14.98335044 90898"
  },
  {
    "name": "STARLINK-5033",
    "tle1": "1 55412U 23014X   24263.66454678  .00006108  00000+0  51865-3 0  9992",
    "tle2": "2 55412  70.0000 355.8545 0003466 266.6792  93.3970 14.98373430 91270"
  },
  {
    "name": "STARLINK-5060",
    "tle1": "1 55413U 23014Y   24263.65190874  .00008269  00000+0  69973-3 0  9996",
    "tle2": "2 55413  70.0021 355.8077 0003339 267.6651  92.4126 14.98343161 91279"
  },
  {
    "name": "STARLINK-5620",
    "tle1": "1 55414U 23014Z   24264.20268027  .00004407  00000+0  37688-3 0  9993",
    "tle2": "2 55414  70.0018 354.5222 0002903 271.0748  89.0079 14.98332744 91359"
  },
  {
    "name": "STARLINK-5618",
    "tle1": "1 55415U 23014AA  24263.65206306  .00001849  00000+0  16266-3 0  9990",
    "tle2": "2 55415  70.0016 355.8084 0003318 266.2999  93.7781 14.98343053 91271"
  },
  {
    "name": "STARLINK-5624",
    "tle1": "1 55416U 23014AB  24264.21102863  .00004355  00000+0  37253-3 0  9991",
    "tle2": "2 55416  70.0024 354.5505 0003083 268.6870  91.3936 14.98333862 90416"
  },
  {
    "name": "STARLINK-5616",
    "tle1": "1 55417U 23014AC  24263.66444798  .00021047  00000+0  17673-2 0  9996",
    "tle2": "2 55417  70.0018 355.8542 0003323 266.0375  94.0404 14.98309099 91274"
  },
  {
    "name": "STARLINK-5030",
    "tle1": "1 55418U 23014AD  24263.68529537  .00001316  00000+0  11805-3 0  9993",
    "tle2": "2 55418  70.0035 355.9249 0002801 269.5466  90.5372 14.98334984 91274"
  },
  {
    "name": "STARLINK-5629",
    "tle1": "1 55419U 23014AE  24263.67277211  .00003795  00000+0  32558-3 0  9993",
    "tle2": "2 55419  69.9999 355.8829 0003454 268.2743  91.8020 14.98338909 90334"
  },
  {
    "name": "STARLINK-5604",
    "tle1": "1 55420U 23014AF  24263.57635143 -.00000801  00000+0 -59364-4 0  9998",
    "tle2": "2 55420  69.9988 316.2158 0003199 267.6518  92.4275 14.98334363 92240"
  },
  {
    "name": "STARLINK-5598",
    "tle1": "1 55421U 23014AG  24263.61435678  .00000990  00000+0  90723-4 0  9996",
    "tle2": "2 55421  70.0005 356.0772 0003107 270.1247  89.9556 14.98337519 91265"
  },
  {
    "name": "STARLINK-5006",
    "tle1": "1 55422U 23014AH  24263.66024751  .00004822  00000+0  41151-3 0  9996",
    "tle2": "2 55422  70.0015 355.8345 0003388 266.1167  93.9605 14.98343895 90338"
  },
  {
    "name": "STARLINK-5068",
    "tle1": "1 55423U 23014AJ  24263.63105537  .00002441  00000+0  21223-3 0  9999",
    "tle2": "2 55423  70.0028 356.1362 0003008 267.7556  92.3258 14.98341479 91260"
  },
  {
    "name": "STARLINK-5615",
    "tle1": "1 55425U 23014AL  24263.62270796  .00006050  00000+0  51431-3 0  9994",
    "tle2": "2 55425  70.0033 356.1091 0003262 264.4766  95.6021 14.98337741 91267"
  },
  {
    "name": "STARLINK-5638",
    "tle1": "1 55426U 23014AM  24263.63940935  .00005795  00000+0  49298-3 0  9998",
    "tle2": "2 55426  70.0030 356.1680 0003046 265.6160  94.4651 14.98337519 91269"
  },
  {
    "name": "STARLINK-5073",
    "tle1": "1 55427U 23014AN  24263.62688431  .00003015  00000+0  26031-3 0  9991",
    "tle2": "2 55427  70.0033 356.1232 0002805 271.0027  89.0810 14.98335410 91266"
  },
  {
    "name": "STARLINK-5064",
    "tle1": "1 55428U 23014AP  24263.64775825  .00012098  00000+0  10197-2 0  9994",
    "tle2": "2 55428  70.0020 356.1970 0003247 263.8632  96.2157 14.98338711 91265"
  },
  {
    "name": "STARLINK-5645",
    "tle1": "1 55429U 23014AQ  24263.63523906  .00007660  00000+0  64893-3 0  9997",
    "tle2": "2 55429  70.0028 356.1524 0003017 265.1191  94.9623 14.98336262 91261"
  },
  {
    "name": "STARLINK-5642",
    "tle1": "1 55430U 23014AR  24263.62710623  .00001545  00000+0  13725-3 0  9996",
    "tle2": "2 55430  70.0014  15.9827 0003008 268.8271  91.2544 14.98336195 90775"
  },
  {
    "name": "STARLINK-5643",
    "tle1": "1 55431U 23014AS  24263.64358148  .00004871  00000+0  41564-3 0  9996",
    "tle2": "2 55431  70.0034 356.1837 0002796 265.8009  94.2830 14.98335642 91260"
  },
  {
    "name": "STARLINK-5637",
    "tle1": "1 55432U 23014AT  24263.63562036  .00000246  00000+0  28380-4 0  9993",
    "tle2": "2 55432  70.0011  16.0134 0002946 267.9249  92.1573 14.98335988 90773"
  },
  {
    "name": "STARLINK-5570",
    "tle1": "1 55433U 23014AU  24263.62293223  .00001515  00000+0  13474-3 0  9999",
    "tle2": "2 55433  70.0014  15.9680 0003021 268.0296  92.0517 14.98335945 90770"
  },
  {
    "name": "STARLINK-5621",
    "tle1": "1 55434U 23014AV  24263.64380954  .00014524  00000+0  12222-2 0  9993",
    "tle2": "2 55434  70.0029  16.0408 0003374 268.3594  91.7179 14.98339308 90779"
  },
  {
    "name": "STARLINK-5626",
    "tle1": "1 55435U 23014AW  24263.76897727  .00001197  00000+0  10808-3 0  9999",
    "tle2": "2 55435  70.0010  15.6774 0003081 268.9713  91.1093 14.98328963 90791"
  },
  {
    "name": "STARLINK-5640",
    "tle1": "1 55436U 23014AX  24263.71473874  .00000255  00000+0  29195-4 0  9992",
    "tle2": "2 55436  70.0006  15.8867 0003127 263.7926  96.2877 14.98335006 90783"
  },
  {
    "name": "STARLINK-5080",
    "tle1": "1 55437U 23014AY  24264.17816438  .00310962  00000+0  40204-2 0  9992",
    "tle2": "2 55437  69.9793 338.8464 0014339 311.1135  48.8816 15.57631046 90800"
  },
  {
    "name": "STARLINK-5074",
    "tle1": "1 55438U 23014AZ  24263.63080958 -.00004281  00000+0 -35109-3 0  9998",
    "tle2": "2 55438  70.0002 335.8819 0002862 265.0381  95.0451 14.98341424 91763"
  },
  {
    "name": "STARLINK-5634",
    "tle1": "1 55439U 23014BA  24263.71890912  .00003161  00000+0  27251-3 0  9990",
    "tle2": "2 55439  70.0022  15.9025 0003046 271.4634  88.6177 14.98340353 90782"
  },
  {
    "name": "APSTAR-6E SPS",
    "tle1": "1 55447U 23005C   24263.05890018  .00000052  00000+0  74255-2 0  9994",
    "tle2": "2 55447  28.6338 164.7279 2287418 151.1895 223.6695  7.60525603 45449"
  },
  {
    "name": "STARLINK-5699",
    "tle1": "1 55449U 23015A   24263.57706255 -.00000319  00000+0 -85436-5 0  9997",
    "tle2": "2 55449  43.0063 359.5196 0001127 254.2909 105.7809 15.02535559 91049"
  },
  {
    "name": "STARLINK-5686",
    "tle1": "1 55450U 23015B   24263.64688608  .00000908  00000+0  82332-4 0  9991",
    "tle2": "2 55450  43.0052 359.1838 0001218 262.1475  97.9229 15.02528078 91052"
  },
  {
    "name": "STARLINK-5656",
    "tle1": "1 55451U 23015C   24263.57374837  .00001160  00000+0  10093-3 0  9995",
    "tle2": "2 55451  43.0044 359.4950 0001734 285.6269  74.4382 15.02527637 90101"
  },
  {
    "name": "STARLINK-5683",
    "tle1": "1 55452U 23015D   24263.30337973 -.00000413  00000+0 -15508-4 0  9996",
    "tle2": "2 55452  43.0030   0.9018 0001142 258.5912 101.4802 15.02535636 90068"
  },
  {
    "name": "STARLINK-5684",
    "tle1": "1 55453U 23015E   24263.63246197 -.00000110  00000+0  69532-5 0  9990",
    "tle2": "2 55453  43.0039 359.0741 0000920 274.1304  85.9433 15.02518484 90115"
  },
  {
    "name": "STARLINK-5636",
    "tle1": "1 55454U 23015F   24263.62578373 -.00000782  00000+0 -42792-4 0  9998",
    "tle2": "2 55454  43.0043 359.0124 0001032 269.0847  90.9877 15.02534626 90110"
  },
  {
    "name": "STARLINK-5680",
    "tle1": "1 55455U 23015G   24263.57264202 -.00001072  00000+0 -64255-4 0  9997",
    "tle2": "2 55455  43.0095 359.4920 0002780 274.4718  85.5807 15.02521616 90101"
  },
  {
    "name": "STARLINK-5058",
    "tle1": "1 55456U 23015H   24263.75985282  .00001128  00000+0  98575-4 0  9998",
    "tle2": "2 55456  43.0055 358.3111 0001563 282.8710  77.1957 15.02539843 90138"
  },
  {
    "name": "STARLINK-5682",
    "tle1": "1 55457U 23015J   24263.62911311  .00001227  00000+0  10586-3 0  9992",
    "tle2": "2 55457  43.0049 359.0478 0001191 280.8330  79.2378 15.02533396 90114"
  }
]
